start=new Date('2022-03-08T00:00:00.000Z').valueOf();
sats=[{"RA_OF_ASC_NODE":"44.8126","OBJECT_TYPE":"PAYLOAD","MEAN_MOTION_DDOT":"0.0000000000000","FILE":"3349338","MEAN_ANOMALY":"50.0628","PERIOD":"91.330","ARG_OF_PERICENTER":"309.9790","RCS_SIZE":"LARGE","EPHEMERIS_TYPE":"0","BSTAR":"-0.00008435700000","TLE_LINE2":"2 45539  53.0492  44.8126 0006841 309.9790  50.0628 15.76699393106637","CLASSIFICATION_TYPE":"U","OBJECT_NAME":"STARLINK-1367","INCLINATION":"53.0492","MEAN_ELEMENT_THEORY":"SGP4","CENTER_NAME":"EARTH","EPOCH":"2022-03-07T10:31:43.165056","ECCENTRICITY":"0.00068410","GP_ID":"198150441","TLE_LINE1":"1 45539U 20025J   22066.43869404 -.00014454  00000-0 -84357-4 0  9990","COUNTRY_CODE":"US","TIME_SYSTEM":"UTC","APOAPSIS":"344.397","MEAN_MOTION_DOT":"-0.00014454","OBJECT_ID":"2020-025J","SEMIMAJOR_AXIS":"6717.937","REF_FRAME":"TEME","LAUNCH_DATE":"2020-04-22","SITE":"AFETR","ELEMENT_SET_NO":"999","MEAN_MOTION":"15.76699393","PERIAPSIS":"335.206","REV_AT_EPOCH":"10663","DECAY_DATE":null,"NORAD_CAT_ID":"45539"},{"ARG_OF_PERICENTER":"69.7693","MEAN_ANOMALY":"290.3452","PERIOD":"95.593","MEAN_MOTION_DDOT":"0.0000000000000","RA_OF_ASC_NODE":"193.5288","OBJECT_TYPE":"PAYLOAD","FILE":"3349821","CLASSIFICATION_TYPE":"U","OBJECT_NAME":"STARLINK-1368","INCLINATION":"53.0540","MEAN_ELEMENT_THEORY":"SGP4","CENTER_NAME":"EARTH","BSTAR":"-0.00021826000000","RCS_SIZE":"LARGE","EPHEMERIS_TYPE":"0","TLE_LINE2":"2 45540  53.0540 193.5288 0001457  69.7693 290.3452 15.06391290104602","APOAPSIS":"548.249","TIME_SYSTEM":"UTC","EPOCH":"2022-03-07T20:31:25.106016","ECCENTRICITY":"0.00014570","TLE_LINE1":"1 45540U 20025K   22066.85515169 -.00003530  00000-0 -21826-3 0  9998","GP_ID":"198185448","COUNTRY_CODE":"US","REV_AT_EPOCH":"10460","PERIAPSIS":"546.231","NORAD_CAT_ID":"45540","DECAY_DATE":null,"OBJECT_ID":"2020-025K","MEAN_MOTION_DOT":"-0.00003530","SITE":"AFETR","ELEMENT_SET_NO":"999","MEAN_MOTION":"15.06391290","SEMIMAJOR_AXIS":"6925.375","REF_FRAME":"TEME","LAUNCH_DATE":"2020-04-22"},{"OBJECT_ID":"2020-025L","MEAN_MOTION_DOT":"-0.00003501","REF_FRAME":"TEME","SEMIMAJOR_AXIS":"6925.399","LAUNCH_DATE":"2020-04-22","SITE":"AFETR","ELEMENT_SET_NO":"999","MEAN_MOTION":"15.06383490","REV_AT_EPOCH":"10460","PERIAPSIS":"546.098","DECAY_DATE":null,"NORAD_CAT_ID":"45541","EPOCH":"2022-03-07T20:36:43.546176","ECCENTRICITY":"0.00016840","COUNTRY_CODE":"US","TLE_LINE1":"1 45541U 20025L   22066.85883734 -.00003501  00000-0 -21635-3 0  9991","GP_ID":"198186198","TIME_SYSTEM":"UTC","APOAPSIS":"548.430","RCS_SIZE":"LARGE","EPHEMERIS_TYPE":"0","BSTAR":"-0.00021635000000","TLE_LINE2":"2 45541  53.0528 193.5130 0001684  64.4850 295.6313 15.06383490104601","CLASSIFICATION_TYPE":"U","OBJECT_NAME":"STARLINK-1369","INCLINATION":"53.0528","CENTER_NAME":"EARTH","MEAN_ELEMENT_THEORY":"SGP4","RA_OF_ASC_NODE":"193.5130","OBJECT_TYPE":"PAYLOAD","MEAN_MOTION_DDOT":"0.0000000000000","FILE":"3349821","MEAN_ANOMALY":"295.6313","PERIOD":"95.593","ARG_OF_PERICENTER":"64.4850"},{"BSTAR":"-0.00013519000000","RCS_SIZE":"LARGE","EPHEMERIS_TYPE":"0","TLE_LINE2":"2 45542  53.0543 194.5685 0001452  64.4997 295.6142 15.06385683104572","CLASSIFICATION_TYPE":"U","OBJECT_NAME":"STARLINK-1371","INCLINATION":"53.0543","MEAN_ELEMENT_THEORY":"SGP4","CENTER_NAME":"EARTH","MEAN_MOTION_DDOT":"0.0000000000000","OBJECT_TYPE":"PAYLOAD","RA_OF_ASC_NODE":"194.5685","FILE":"3349821","ARG_OF_PERICENTER":"64.4997","MEAN_ANOMALY":"295.6142","PERIOD":"95.593","MEAN_MOTION_DOT":"-0.00002294","OBJECT_ID":"2020-025M","SITE":"AFETR","ELEMENT_SET_NO":"999","MEAN_MOTION":"15.06385683","SEMIMAJOR_AXIS":"6925.392","REF_FRAME":"TEME","LAUNCH_DATE":"2020-04-22","PERIAPSIS":"546.252","REV_AT_EPOCH":"10457","NORAD_CAT_ID":"45542","DECAY_DATE":null,"EPOCH":"2022-03-07T15:02:20.441472","ECCENTRICITY":"0.00014520","TLE_LINE1":"1 45542U 20025M   22066.62662548 -.00002294  00000-0 -13519-3 0  9995","GP_ID":"198186450","COUNTRY_CODE":"US","APOAPSIS":"548.263","TIME_SYSTEM":"UTC"},{"ARG_OF_PERICENTER":"67.7895","MEAN_ANOMALY":"292.3238","PERIOD":"95.593","MEAN_MOTION_DDOT":"0.0000000000000","RA_OF_ASC_NODE":"194.3946","OBJECT_TYPE":"PAYLOAD","FILE":"3349821","CLASSIFICATION_TYPE":"U","OBJECT_NAME":"STARLINK-1372","INCLINATION":"53.0551","MEAN_ELEMENT_THEORY":"SGP4","CENTER_NAME":"EARTH","BSTAR":"0.00000273740000","RCS_SIZE":"LARGE","EPHEMERIS_TYPE":"0","TLE_LINE2":"2 45543  53.0551 194.3946 0001359  67.7895 292.3238 15.06393851103675","APOAPSIS":"548.174","TIME_SYSTEM":"UTC","EPOCH":"2022-03-07T15:55:24.776544","ECCENTRICITY":"0.00013590","TLE_LINE1":"1 45543U 20025N   22066.66348121 -.00000241  00000-0  27374-5 0  9993","GP_ID":"198187200","COUNTRY_CODE":"US","REV_AT_EPOCH":"10367","PERIAPSIS":"546.291","NORAD_CAT_ID":"45543","DECAY_DATE":null,"MEAN_MOTION_DOT":"-0.00000241","OBJECT_ID":"2020-025N","SITE":"AFETR","MEAN_MOTION":"15.06393851","ELEMENT_SET_NO":"999","REF_FRAME":"TEME","SEMIMAJOR_AXIS":"6925.367","LAUNCH_DATE":"2020-04-22"},{"DECAY_DATE":null,"NORAD_CAT_ID":"45544","PERIAPSIS":"546.306","REV_AT_EPOCH":"10457","REF_FRAME":"TEME","SEMIMAJOR_AXIS":"6925.382","LAUNCH_DATE":"2020-04-22","SITE":"AFETR","MEAN_MOTION":"15.06389191","ELEMENT_SET_NO":"999","OBJECT_ID":"2020-025P","MEAN_MOTION_DOT":"-0.00001489","TIME_SYSTEM":"UTC","APOAPSIS":"548.187","TLE_LINE1":"1 45544U 20025P   22066.61556398 -.00001489  00000-0 -81115-4 0  9994","COUNTRY_CODE":"US","GP_ID":"198185948","EPOCH":"2022-03-07T14:46:24.727872","ECCENTRICITY":"0.00013580","INCLINATION":"53.0539","OBJECT_NAME":"STARLINK-1373","MEAN_ELEMENT_THEORY":"SGP4","CENTER_NAME":"EARTH","CLASSIFICATION_TYPE":"U","TLE_LINE2":"2 45544  53.0539 194.6186 0001358  78.9638 281.1504 15.06389191104573","RCS_SIZE":"LARGE","EPHEMERIS_TYPE":"0","BSTAR":"-0.00008111500000","MEAN_ANOMALY":"281.1504","PERIOD":"95.593","ARG_OF_PERICENTER":"78.9638","FILE":"3349821","OBJECT_TYPE":"PAYLOAD","RA_OF_ASC_NODE":"194.6186","MEAN_MOTION_DDOT":"0.0000000000000"},{"MEAN_MOTION_DDOT":"0.0000000000000","OBJECT_TYPE":"PAYLOAD","RA_OF_ASC_NODE":"193.9335","FILE":"3349821","ARG_OF_PERICENTER":"73.5479","PERIOD":"95.593","MEAN_ANOMALY":"286.5661","BSTAR":"-0.00009931300000","EPHEMERIS_TYPE":"0","RCS_SIZE":"LARGE","TLE_LINE2":"2 45545  53.0536 193.9335 0001379  73.5479 286.5661 15.06388042104573","CLASSIFICATION_TYPE":"U","CENTER_NAME":"EARTH","MEAN_ELEMENT_THEORY":"SGP4","OBJECT_NAME":"STARLINK-1374","INCLINATION":"53.0536","ECCENTRICITY":"0.00013790","EPOCH":"2022-03-07T18:24:02.211264","COUNTRY_CODE":"US","TLE_LINE1":"1 45545U 20025Q   22066.76669226 -.00001760  00000-0 -99313-4 0  9997","GP_ID":"198185699","APOAPSIS":"548.205","TIME_SYSTEM":"UTC","OBJECT_ID":"2020-025Q","MEAN_MOTION_DOT":"-0.00001760","ELEMENT_SET_NO":"999","MEAN_MOTION":"15.06388042","SITE":"AFETR","LAUNCH_DATE":"2020-04-22","REF_FRAME":"TEME","SEMIMAJOR_AXIS":"6925.385","PERIAPSIS":"546.295","REV_AT_EPOCH":"10457","NORAD_CAT_ID":"45545","DECAY_DATE":null},{"FILE":"3349821","RA_OF_ASC_NODE":"193.5767","OBJECT_TYPE":"PAYLOAD","MEAN_MOTION_DDOT":"0.0000000000000","MEAN_ANOMALY":"280.9999","PERIOD":"95.593","ARG_OF_PERICENTER":"79.1139","TLE_LINE2":"2 45546  53.0554 193.5767 0001327  79.1139 280.9999 15.06387842104600","RCS_SIZE":"LARGE","EPHEMERIS_TYPE":"0","BSTAR":"-0.00013309000000","OBJECT_NAME":"STARLINK-1375","INCLINATION":"53.0554","CENTER_NAME":"EARTH","MEAN_ELEMENT_THEORY":"SGP4","CLASSIFICATION_TYPE":"U","TLE_LINE1":"1 45546U 20025R   22066.84409728 -.00002263  00000-0 -13309-3 0  9995","GP_ID":"198186950","COUNTRY_CODE":"US","EPOCH":"2022-03-07T20:15:30.004992","ECCENTRICITY":"0.00013270","TIME_SYSTEM":"UTC","APOAPSIS":"548.170","REF_FRAME":"TEME","SEMIMAJOR_AXIS":"6925.386","LAUNCH_DATE":"2020-04-22","SITE":"AFETR","MEAN_MOTION":"15.06387842","ELEMENT_SET_NO":"999","OBJECT_ID":"2020-025R","MEAN_MOTION_DOT":"-0.00002263","DECAY_DATE":null,"NORAD_CAT_ID":"45546","REV_AT_EPOCH":"10460","PERIAPSIS":"546.332"},{"EPOCH":"2022-03-07T20:10:11.626176","ECCENTRICITY":"0.00014960","TLE_LINE1":"1 45547U 20025S   22066.84041234 -.00001288  00000-0 -67578-4 0  9994","COUNTRY_CODE":"US","GP_ID":"198186701","TIME_SYSTEM":"UTC","APOAPSIS":"548.262","MEAN_MOTION_DOT":"-0.00001288","OBJECT_ID":"2020-025S","SEMIMAJOR_AXIS":"6925.361","REF_FRAME":"TEME","LAUNCH_DATE":"2020-04-22","SITE":"AFETR","MEAN_MOTION":"15.06395825","ELEMENT_SET_NO":"999","REV_AT_EPOCH":"10461","PERIAPSIS":"546.190","DECAY_DATE":null,"NORAD_CAT_ID":"45547","OBJECT_TYPE":"PAYLOAD","RA_OF_ASC_NODE":"193.5912","MEAN_MOTION_DDOT":"0.0000000000000","FILE":"3349821","MEAN_ANOMALY":"298.6875","PERIOD":"95.592","ARG_OF_PERICENTER":"61.4264","RCS_SIZE":"LARGE","EPHEMERIS_TYPE":"0","BSTAR":"-0.00006757800000","TLE_LINE2":"2 45547  53.0546 193.5912 0001496  61.4264 298.6875 15.06395825104614","CLASSIFICATION_TYPE":"U","INCLINATION":"53.0546","OBJECT_NAME":"STARLINK-1377","MEAN_ELEMENT_THEORY":"SGP4","CENTER_NAME":"EARTH"},{"APOAPSIS":"548.493","TIME_SYSTEM":"UTC","EPOCH":"2022-03-07T20:47:20.759136","ECCENTRICITY":"0.00017590","TLE_LINE1":"1 45548U 20025T   22066.86621249 -.00003389  00000-0 -20883-3 0  9998","GP_ID":"198185449","COUNTRY_CODE":"US","REV_AT_EPOCH":"10460","PERIAPSIS":"546.057","NORAD_CAT_ID":"45548","DECAY_DATE":null,"OBJECT_ID":"2020-025T","MEAN_MOTION_DOT":"-0.00003389","SITE":"AFETR","ELEMENT_SET_NO":"999","MEAN_MOTION":"15.06379865","SEMIMAJOR_AXIS":"6925.410","REF_FRAME":"TEME","LAUNCH_DATE":"2020-04-22","ARG_OF_PERICENTER":"63.0352","MEAN_ANOMALY":"297.0817","PERIOD":"95.593","MEAN_MOTION_DDOT":"0.0000000000000","OBJECT_TYPE":"PAYLOAD","RA_OF_ASC_NODE":"193.4960","FILE":"3349821","CLASSIFICATION_TYPE":"U","INCLINATION":"53.0544","OBJECT_NAME":"STARLINK-1378","CENTER_NAME":"EARTH","MEAN_ELEMENT_THEORY":"SGP4","BSTAR":"-0.00020883000000","RCS_SIZE":"LARGE","EPHEMERIS_TYPE":"0","TLE_LINE2":"2 45548  53.0544 193.4960 0001759  63.0352 297.0817 15.06379865104607"}];
